NUSAT-49 (KLARA DAN VO*)
1 60500U 24149AJ  26068.79810190  .00012912  00000+0  43568-3 0  9991
2 60500  97.3807 150.7380 0001132 286.7761  73.3356 15.30828857 86935
STARLINK-35669          
1 66396U 25257S   26068.67371446  .00016053  00000+0  55291-3 0  9990
2 66396  53.1608 216.9084 0000992  84.2037 275.9077 15.30201833 19732
